PROGRESS-MS 32          
1 65586U 25204A   25300.16780669  .00014439  00000+0  26496-3 0  9996
2 65586  51.6344  13.0478 0004675 344.0892  15.9949 15.49510292   274
CYGNUS NG-23            
1 65616U 25208A   25300.16780669  .00014439  00000+0  26496-3 0  9994
2 65616  51.6344  13.0478 0004675 344.0892  15.9949 15.49510292   223
DRAGONFLY               
1 65729U 98067XH  25300.62312022  .00086356  00000+0  10990-2 0  9995
2 65729  51.6317   9.3422 0002795  49.4848 310.6388 15.58609431  5943
1998-067XJ              
1 65730U 98067XJ  25300.55316699  .00213817  00000+0  20484-2 0  9996
2 65730  51.6300   8.8724 0010113  21.7379 338.4043 15.65383349  5942
1998-067XK              
1 65731U 98067XK  25300.57753387  .00062583  00000+0  85334-3 0  9996
2 65731  51.6328   9.7884 0004409  22.7277 337.3909 15.56899836  5930
RSP-03                  
1 65732U 98067XL  25300.56845447  .00073724  00000+0  97195-3 0  9992
2 65732  51.6322   9.7273 0005077  22.9591 337.1627 15.57730144  5943
GHS-01                  
1 65733U 98067XM  25300.48868683  .00098585  00000+0  12256-2 0  9997
2 65733  51.6329   9.9460 0003179  44.4958 315.6289 15.59169468  5939
YOTSUBA-KULOVER         
1 65941U 98067XN  25300.27430305  .00050396  00000+0  80727-3 0  9998
2 65941  51.6336  12.2607 0002448 315.8406  44.2388 15.52592485  2629
BOTAN                   
1 65942U 98067XP  25300.20651253  .00068238  00000+0  10633-2 0  9991
2 65942  51.6340  12.5584 0004340 338.3786  21.7021 15.53223057  2616
E-KAGAKU-1              
1 65943U 98067XQ  25299.43713291  .00049272  00000+0  79166-3 0  9999
2 65943  51.6337  16.4198 0004085 323.6954  36.3758 15.52513453  2493
HRC MONOBLOCK CAMERA    
1 66052U 98067XR  25300.74463691  .00032388  00000+0  56757-3 0  9995
2 66052  51.6329  10.1507 0004145 353.9198   6.1740 15.50272290  1690
HTV-X 1                 
1 66174U 25241A   25300.49424941  .00010095  00000+0  16773-3 0  9996
2 66174  51.6338  11.4824 0004046 344.0379  16.0483 15.52723727   245
